#dP2020  5 17  0  0  0.00000000      96 __u+U ITR00 FIT  IAC
## 2106      0.00000000   900.00000000 58986 0.0000000000000
+  117   C06C07C08C09C10C11C12C13C14C16C19C20C21C22C23C24C25
+        C26C27C28C29C30C32C33C34C35C36C37C38C39C40C43C44C45
+        C46E01E02E03E04E05E07E08E09E11E12E13E14E15E18E19E21
+        E24E25E26E27E30E31E33E36G01G02G03G04G05G06G07G08G09
+        G10G11G12G13G14G15G16G17G18G19G20G21G22G23G24G25G26
+        G27G28G29G30G31G32J01J02J03R01R02R03R04R05R07R08R09
+        R11R12R13R14R15R16R17R18R19R20R21R22R23R24R26  0  0
++         7 10  7  9  8  8  7  7  9  7  8  7  6  7  7  6  7
++         7  7  5  6  6  6  7  8  7  8  5  5 15 11  8 11  9
++         7  6  5  6  5  5  6  7  5  6  5  6  5  7  8  7  6
++         6  6  7  6  6  6  6  6  6  6  6  6  5  7  4  6  6
++         5  7  5  6  5  5  5  6  4  6  6  4  5  7  4  5  6
++         4  5  4  5  6  6  8 11 10  6  5  7  7  6  7  7  6
++         5  7  6  6  7  6  5  7  7  9  6  7  7  6  8  0  0
%c M  cc GPS ccc cccc cccc cccc cccc ccccc ccccc ccccc ccccc
%c cc cc ccc ccc cccc cccc cccc cccc ccccc ccccc ccccc ccccc
%f  0.0000000  0.000000000  0.00000000000  0.000000000000000
%f  0.0000000  0.000000000  0.00000000000  0.000000000000000
%i    0    0    0    0      0      0      0      0         0
%i    0    0    0    0      0      0      0      0         0
/* INFORMATION & ANALYSIS CENTER (IAC)      ULTRA-RAPID DATA
/* S/V CLOCKS ARE ALIGNED TO GNSS TIME                      
/* G:C1WC2W R:C1PC2P E:C1XC5X C:C2IC6I J:C1CC2S             
/* PCV:IGS14_2101 OL/AL:FES2004  NONE     YN ORB:CoN CLK:CoN
*  2020 05 17 15 45  0.00000000
PC06  -8420.608417  32917.193170  25639.261125    733.997487
PC07 -19639.440707  21865.079049 -30195.129981    -40.280569
PC08 -23539.703626  34175.725047   6526.148512   -257.874132
PC09   3070.700109  40649.183326  11804.154923    546.812199
PC10  -2143.596433  26017.945077 -32934.916439   -933.040884
PC11 -13701.936650  10666.649310 -21780.216474 999999.999999
PC12 -14653.576365 -10855.341076 -21101.054948    375.333175
PC13 -12087.258131  35247.791840  19578.482014    440.795629
PC14 -21749.166348   3075.544602  17281.896961    417.943850
PC16  -5115.931720  34807.957256  23454.453144   -641.997619
PC19  14222.523504 -10038.597279 -21773.475563    415.333507
PC20  25444.297528   3731.720272 -10771.168535   -874.224011
PC21 -21905.471775 -15811.404547  -7019.920137   -412.231831
PC22  -5514.527468 -18297.810749 -20334.855465 999999.999999
PC23  -5105.830580  19724.511993 -19068.056164   -874.203879
PC24 -24249.349487   5385.109343  12693.443049   -819.309827
PC25 -20201.628479  18595.050685  -4945.383766 999999.999999
PC26 -14203.435864  -9207.357937  22176.740396 999999.999999
PC27  11829.878300  20024.486510  15419.380852    331.614396
PC28    824.880514  27868.199611  -1146.010102   -230.299290
PC29   9891.619988 -19812.059136  16970.063933    229.764859
PC30  15946.012737    240.806756  22896.576561    318.285708
PC32  21985.478368  15669.159497   7057.585429   -891.779749
PC33 -14278.863428  10099.388676  21763.373157   -834.960415
PC34 -15955.534289    316.166337 -22900.071388 999999.999999
PC35  -1657.139020 -27806.027812   1307.284212   -840.474403
PC36  20751.628336 -18042.216757   4751.708852   -831.178941
PC37  13442.992616   9994.374155 -22302.455771   -843.237799
PC38 -19004.631273  35780.265520  11534.075952 999999.999999
PC39   -275.848508  36560.671464  21116.121190 999999.999999
PC40  -7632.406048  20886.681095 -35826.608408 999999.999999
PC43 -10245.996982  19547.876877 -17098.976391 999999.999999
PC44 -12498.669422 -19715.660934 -15270.715532 999999.999999
PC45   5121.951089 -19671.868305  19128.822599 999999.999999
PC46  24324.701145  -5936.207173 -12342.231328 999999.999999
PE01 -25660.508466  10884.094222  -9966.292575   -858.439433
PE02  25619.252964 -10924.318345  10034.741405    133.980558
PE03  15111.705027  -8445.780379 -24002.339456   -299.687787
PE04   1336.245787  22785.973983  18857.113516   -527.252828
PE05  22911.641897  11040.366997 -15132.977577   -379.460407
PE07 -17281.192029 -23910.397056  -2477.852050   -383.059121
PE08  -1789.427898 -22803.645811 -18786.177112   6176.976569
PE09  17474.051087  23758.261012   2430.832208   6058.295709
PE11   6171.832166  21092.370318  19832.978808   2889.363094
PE12  -8174.834950  28287.939080   3149.709190   5800.884915
PE13  -6046.172014 -21206.419445 -19736.968278    400.910702
PE14   1007.927937  26818.810800 -10192.760367  -1017.115981
PE15   7929.504479 -28315.080468  -3348.628128    866.744415
PE18 -13446.164307 -25140.043040  -5294.218517  -1116.274973
PE19 -16397.475553   6355.664127  23820.685234  -2236.855376
PE21 -28286.599516  -1180.754292   8639.994940   -599.435103
PE24  14133.639937  13032.200327 -22526.340708   5450.946245
PE25  28243.930504   1270.240422  -8762.342629   -510.731324
PE26 -16746.625485  -1353.435581 -24368.031766 999999.999999
PE27 -14401.131897 -12813.945949  22461.575097    218.092402
PE30   8330.946237 -16840.158127  22863.312598   3900.001990
PE31  -7874.597815  16859.868459 -23016.924744   -472.579072
PE33 -17250.625238  18808.538224 -15001.577482   -467.184759
PE36  16468.985562   1665.191000  24541.259951    558.982193
PG01  14512.528262 -21943.486855  -2073.440790   -381.316780
PG02 -18664.128626   8049.959750 -16430.365336   -457.380378
PG03  11155.757342 -12969.742262 -20346.233519   -178.700722
PG04   3081.392387 -21318.640993 -15506.954429    -90.549678
PG05 -25909.796917   2178.754339   5778.013904    -12.850000
PG06 -14923.446378  -4053.539336 -21544.991392   -273.165569
PG07    253.730512 -20463.831146  16962.171207   -283.230014
PG08  10827.440094 -11471.021717  21342.396827    -34.314377
PG09  -6639.552983 -24952.565084  -6235.547177   -219.057556
PG10  19617.936801  11682.762114  13852.705532   -343.763503
PG11  12368.119999 -20401.840458  11495.828684   -274.729506
PG12 -12690.530439  11681.868061 -20388.378371    116.857312
PG13 -14794.856907   2821.133305  21762.753551     10.731570
PG14  16497.566146  12677.410575 -16268.279641    -12.354486
PG15  -9970.698500  13253.949919  20366.135104   -230.587559
PG16  25611.001911   -180.528147   7644.768541   -159.289354
PG17 -14120.684468 -20429.839949  -9059.591839    266.204702
PG18  -1281.388313  20649.242953  16643.104394 999999.999999
PG19 -15982.216569 -13904.969483 -16334.243464   -157.566411
PG20   9005.124654  14697.111998  20179.281395    527.680315
PG21   2875.712747  19837.784587  18342.059586     -0.198387
PG22  19605.866124 -10290.066196 -14346.746157   -781.986567
PG23  -8128.570526 -24624.205330  -4361.917565   -113.450494
PG24 -14333.922805  22117.383973    208.741423    -13.150099
PG25  -1398.930507  15159.178149 -22003.719565      4.826915
PG26  25886.854080   4920.971578  -4217.435198    208.151216
PG27  15845.316443    450.133208  21228.642714   -296.166484
PG28 -19349.717839 -12978.243385  13195.040395    716.646516
PG29   2484.181079  24782.984502  -9231.464688   -106.502934
PG30  -9218.981461 -13269.427647  21092.011974   -222.094645
PG31  16380.855525   2761.273105 -20854.458268    -43.007397
PG32  16080.272850  18781.154602  -9817.398773    282.319606
PJ01 -27090.321294  21683.643875  29032.006027   -302.802474
PJ02 -35178.701805  19706.303792  -7889.640474 999999.999999
PJ03 -19800.605458  27149.607200 -20903.083071     -3.062698
PR01 -11022.079180 -16958.587132 -15546.252152     61.669107
PR02 -21387.577937 -13034.186289   4727.425915    427.116382
PR03 -16805.105443   -960.900843  19194.572167     15.167664
PR04  -2623.516525  11327.622906  22735.865147     49.453785
PR05  12984.732860  17386.368015  13440.459306     50.630455
PR07  16507.696984    637.271657 -19408.696591    -36.611080
PR08   2683.503948 -11394.676346 -22602.660504    -52.285390
PR09  20861.196991  -1536.020490 -14536.015762    133.072894
PR11  13992.359880 -14523.319477  15599.093869    -23.900176
PR12  -2564.290444 -10782.735857  22998.944600    131.515433
PR13 -18586.346880   -628.482795  17442.211754    -38.775607
PR14 -23583.414386   9619.176487   1557.620952     51.318778
PR15 -14889.192152  14316.840994 -14949.568126    106.492518
PR16   3560.297102  10586.691136 -22952.834932     -3.585155
PR17 -10779.356891   9008.641438 -21277.893628    325.560093
PR18  -6851.732363  22799.950295  -9229.943574     35.654983
PR19   -131.322086  24434.529808   7323.154155    -93.736317
PR20   8182.777835  10832.761043  21610.602922   -411.928544
PR21  10657.131177 -10016.065119  20901.652957   -125.115052
PR22   5975.622790 -23774.078853   6819.184199     -1.672807
PR23  -3513.250883 -21357.728534 -13503.366963    306.089021
PR24  -8912.991876 -10062.776765 -21666.837899     -1.172571
PR26   6934.477870  15078.124358  19370.000867   -395.954522
EOF
